NORAD_CAT_ID,OBJECT_NAME,OBJECT_TYPE,EPOCH,MEAN_MOTION,ECCENTRICITY,INCLINATION,RA_OF_ASC_NODE,ARG_OF_PERICENTER,MEAN_ANOMALY,BSTAR,MEAN_MOTION_DOT,MEAN_MOTION_DDOT,TLE_LINE0,TLE_LINE1,TLE_LINE2,SEMIMAJOR_AXIS,PERIOD,APOGEE,PERIGEE,DECAYED
51128.0,STARLINK-3400,PAYLOAD,2022-03-17 22:00:00,15.59039312,0.0001393,53.2177,348.4917,56.664,204.5056,-0.00981,-0.00713325,0.0,0 STARLINK-3400,1 51128U 22005AA  22076.91667824 -.00713325  00000-0 -98100-2 0  9999,2 51128  53.2177 348.4917 0001393  56.6640 204.5056 15.59039312  3703,6768.573,92.365,391.381,389.495,0.0
51128.0,STARLINK-3400,PAYLOAD,2022-03-18 06:00:00,15.58529602,0.0001159,53.2173,346.8768,61.3306,271.441,-0.0099943,-0.00712748,0.0,0 STARLINK-3400,1 51128U 22005AA  22077.25001157 -.00712748  00000-0 -99943-2 0  9992,2 51128  53.2173 346.8768 0001159  61.3306 271.4410 15.58529602 10471,6770.049,92.395,392.699,391.129,0.0
51128.0,STARLINK-3400,PAYLOAD,2022-03-18 14:00:01,15.58018188,0.0001315999999999,53.2174,345.2603,45.0756,358.6886,-0.010175,-0.00711798,0.0,0 STARLINK-3400,1 51128U 22005AA  22077.58334491 -.00711798  00000-0 -10175-1 0  9991,2 51128  53.2174 345.2603 0001316  45.0756 358.6886 15.58018188  3712,6771.53,92.425,394.286,392.504,0.0
51128.0,STARLINK-3400,PAYLOAD,2022-03-18 22:00:00,15.57509274,0.0001519,53.2173,343.6482,43.7599,70.3805,-0.010394,-0.00713177,0.0,0 STARLINK-3400,1 51128U 22005AA  22077.91667824 -.00713177  00000-0 -10394-1 0  9993,2 51128  53.2173 343.6482 0001519  43.7599  70.3805 15.57509274  3767,6773.005,92.455,395.899,393.841,0.0
51128.0,STARLINK-3400,PAYLOAD,2022-03-19 02:00:01,15.57256403,0.0001456,53.2174,342.8428,45.2795,283.8834,-0.010552,-0.00716807,0.0,0 STARLINK-3400,1 51128U 22005AA  22078.08335648 -.00716807  00000-0 -10552-1 0  9997,2 51128  53.2174 342.8428 0001456  45.2795 283.8834 15.57256403 10601,6773.738,92.47,396.59,394.617,0.0
51128.0,STARLINK-3400,PAYLOAD,2022-03-19 14:00:01,15.56488481,0.0001377,53.2174,340.4239,54.1797,198.8782,-0.010767,-0.0071112,0.0,0 STARLINK-3400,1 51128U 22005AA  22078.58334491 -.00711120  00000-0 -10767-1 0  9998,2 51128  53.2174 340.4239 0001377  54.1797 198.8782 15.56488481  3698,6775.965999999999,92.516,398.764,396.898,0.0
51128.0,STARLINK-3400,PAYLOAD,2022-03-19 22:00:01,15.55980127,0.0001347,53.2175,338.8156,52.4839,269.1766,-0.011021,-0.0071393999999999,0.0,0 STARLINK-3400,1 51128U 22005AA  22078.91668981 -.00713940  00000-0 -11021-1 0  9995,2 51128  53.2175 338.8156 0001347  52.4839 269.1766 15.55980127  3724,6777.441999999999,92.546,400.22,398.394,0.0
51128.0,STARLINK-3400,PAYLOAD,2022-03-20 06:00:00,15.55470318,0.0001144,53.2173,337.2078,59.0701,330.4511,-0.011219,-0.00713141,0.0,0 STARLINK-3400,1 51128U 22005AA  22079.25001157 -.00713141  00000-0 -11219-1 0  9991,2 51128  53.2173 337.2078 0001144  59.0701 330.4511 15.55470318 10784,6778.9230000000025,92.577,401.56300000000016,400.012,0.0
51128.0,STARLINK-3400,PAYLOAD,2022-03-20 14:00:01,15.54959465,0.0001444,53.2174,335.5987,42.687,54.1497,-0.011433,-0.00713168,0.0,0 STARLINK-3400,1 51128U 22005AA  22079.58334491 -.00713168  00000-0 -11433-1 0  9994,2 51128  53.2174 335.5987 0001444  42.6870  54.1497 15.54959465  3681,6780.406999999997,92.607,403.252,401.293,0.0
51128.0,STARLINK-3400,PAYLOAD,2022-03-20 22:00:01,15.54448103,0.0001746,53.2175,333.9941,39.5729,124.0291,-0.011605,-0.00710647,0.0,0 STARLINK-3400,1 51128U 22005AA  22079.91668981 -.00710647  00000-0 -11605-1 0  9995,2 51128  53.2175 333.9941 0001746  39.5729 124.0291 15.54448103  3712,6781.894,92.637,404.944,402.575,0.0
51128.0,STARLINK-3400,PAYLOAD,2022-03-21 06:00:00,15.53941412,0.0001339,53.2171,332.3896,63.9635,165.6602,-0.011917,-0.00715733,0.0,0 STARLINK-3400,1 51128U 22005AA  22080.25001157 -.00715733  00000-0 -11917-1 0  9997,2 51128  53.2171 332.3896 0001339  63.9635 165.6602 15.53941412 10945,6783.369000000002,92.668,406.142,404.325,0.0
51128.0,STARLINK-3400,PAYLOAD,2022-03-21 14:00:01,15.53428306,0.000135,53.2173,330.7845,52.0183,243.0827,-0.012047,-0.00710541,0.0,0 STARLINK-3400,1 51128U 22005AA  22080.58334491 -.00710541  00000-0 -12047-1 0  9990,2 51128  53.2173 330.7845 0001350  52.0183 243.0827 15.53428306  3699,6784.861999999999,92.698,407.643,405.811,0.0
51128.0,STARLINK-3400,PAYLOAD,2022-03-21 22:00:00,15.52920518,0.0001515,53.2174,329.1838,40.2838,319.6778,-0.012334,-0.00713842,0.0,0 STARLINK-3400,1 51128U 22005AA  22080.91667824 -.00713842  00000-0 -12334-1 0  9992,2 51128  53.2174 329.1838 0001515  40.2838 319.6778 15.52920518  3699,6786.340999999999,92.729,409.234,407.17800000000005,0.0
51128.0,STARLINK-3400,PAYLOAD,2022-03-22 12:00:00,15.52025652,0.0001271,53.2174,326.3814,46.972,335.026,-0.012667,-0.00709987,0.0,0 STARLINK-3400,1 51128U 22005AA  22081.50001157 -.00709987  00000-0 -12667-1 0  9993,2 51128  53.2174 326.3814 0001271  46.9720 335.0260 15.52025652 11135,6788.949000000001,92.782,411.677,409.952,0.0
51128.0,STARLINK-3400,PAYLOAD,2022-03-22 14:00:01,15.51900508,0.0001448,53.2171,325.9813,47.6559,80.1933,-0.012808,-0.00714287,0.0,0 STARLINK-3400,1 51128U 22005AA  22081.58334491 -.00714287  00000-0 -12808-1 0  9997,2 51128  53.2171 325.9813 0001448  47.6559  80.1933 15.51900508  3711,6789.314,92.789,412.163,410.196,0.0
51128.0,STARLINK-3400,PAYLOAD,2022-03-22 22:00:01,15.513882699999998,0.0001748,53.2172,324.3843,42.6066,148.3311,-0.0129639999999999,-0.00710183,0.0,0 STARLINK-3400,1 51128U 22005AA  22081.91668981 -.00710183  00000-0 -12964-1 0  9992,2 51128  53.2172 324.3843 0001748  42.6066 148.3311 15.51388270  3701,6790.809,92.82,413.861,411.487,0.0
51128.0,STARLINK-3400,PAYLOAD,2022-03-23 14:00:01,15.50368376,0.0001416999999999,53.2173,321.1891,47.4149,267.6687,-0.013446,-0.00719149,0.0,0 STARLINK-3400,1 51128U 22005AA  22082.58334491 -.00719149  00000-0 -13446-1 0  9999,2 51128  53.2173 321.1891 0001417  47.4149 267.6687 15.50368376 11308,6793.7869999999975,92.881,416.614,414.689,0.0
51128.0,STARLINK-3400,PAYLOAD,2022-03-23 22:00:00,15.49861397,0.0001584,53.2175,319.5962,37.7368,338.5301,-0.01379,-0.00723989,0.0,0 STARLINK-3400,1 51128U 22005AA  22082.91667824 -.00723989  00000-0 -13790-1 0  9994,2 51128  53.2175 319.5962 0001584  37.7368 338.5301 15.49861397  3716,6795.268,92.912,418.21,416.057,0.0
51128.0,STARLINK-3400,PAYLOAD,2022-03-24 14:00:01,15.48949616,0.0001563,53.2174,316.4098,45.1981,91.6187,-6.267600000000001e-05,-3.887e-05,0.0,0 STARLINK-3400,1 51128U 22005AA  22083.58334491 -.00003887  00000-0 -62676-4 0  9997,2 51128  53.2174 316.4098 0001563  45.1981  91.6187 15.48949616  3687,6797.935,92.966,420.862,418.737,0.0
51128.0,STARLINK-3400,PAYLOAD,2022-03-24 22:00:00,15.48976665,0.0001579,53.215,314.8272,46.364,150.3524,-0.00038403,-0.00021498,0.0,0 STARLINK-3400,1 51128U 22005AA  22083.91667824 -.00021498  00000-0 -38403-3 0  9991,2 51128  53.2150 314.8272 0001579  46.3640 150.3524 15.48976665 11512,6797.855,92.965,420.794,418.647,0.0
51128.0,STARLINK-3400,PAYLOAD,2022-03-25 06:00:00,15.49066187,0.0001364,53.2137,313.2365,40.3501,216.2945,0.00028826,0.00015479,0.0,0 STARLINK-3400,1 51128U 22005AA  22084.25001157  .00015479  00000-0  28826-3 0  9998,2 51128  53.2137 313.2365 0001364  40.3501 216.2945 15.49066187 11569,6797.594,92.959,420.386,418.531,0.0
51128.0,STARLINK-3400,PAYLOAD,2022-03-25 14:00:01,15.49083373,0.0001203,53.214,311.6439,46.9315,269.645,0.00010578,5.393e-05,0.0,0 STARLINK-3400,1 51128U 22005AA  22084.58334491  .00005393  00000-0  10578-3 0  9993,2 51128  53.2140 311.6439 0001203  46.9315 269.6450 15.49083373  3687,6797.543000000002,92.958,420.226,418.591,0.0
51128.0,STARLINK-3400,PAYLOAD,2022-03-25 20:00:01,15.49113105,0.0001358,53.214,310.452,43.5373,228.0024,-0.0023675,-0.00129073,0.0,0 STARLINK-3400,1 51128U 22005AA  22084.83334491 -.00129073  00000-0 -23675-2 0  9996,2 51128  53.2140 310.4520 0001358  43.5373 228.0024 15.49113105 11652,6797.456,92.956,420.244,418.398,0.0
51128.0,STARLINK-3400,PAYLOAD,2022-03-25 22:00:01,15.49101103,0.0001399,53.2141,310.0546,42.456,334.1386,-0.0027772,-0.00150852,0.0,0 STARLINK-3400,1 51128U 22005AA  22084.91668981 -.00150852  00000-0 -27772-2 0  9990,2 51128  53.2141 310.0546 0001399  42.4560 334.1386 15.49101103  3744,6797.491,92.957,420.307,418.405,0.0
51128.0,STARLINK-3400,PAYLOAD,2022-03-26 06:00:00,15.49019963,0.0001426,53.2141,308.4626,39.4565,37.0805,-0.0035279,-0.00190019,0.0,0 STARLINK-3400,1 51128U 22005AA  22085.25001157 -.00190019  00000-0 -35279-2 0  9994,2 51128  53.2141 308.4626 0001426  39.4565  37.0805 15.49019963 11719,6797.729,92.962,420.56300000000016,418.624,0.0
51128.0,STARLINK-3400,PAYLOAD,2022-03-26 14:00:01,15.4886046,0.0001357,53.2145,306.8705,47.6779,88.6298,0.00032473,0.00017371,0.0,0 STARLINK-3400,1 51128U 22005AA  22085.58334491  .00017371  00000-0  32473-3 0  9991,2 51128  53.2145 306.8705 0001357  47.6779  88.6298 15.48860460  3662,6798.195,92.972,420.983,419.138,0.0
51128.0,STARLINK-3400,PAYLOAD,2022-03-26 20:00:01,15.48890637,0.0001565999999999,53.2145,305.6790000000001,43.0178,48.0606,-0.001269,-0.00069377,0.0,0 STARLINK-3400,1 51128U 22005AA  22085.83334491 -.00069377  00000-0 -12690-2 0  9992,2 51128  53.2145 305.6790 0001566  43.0178  48.0606 15.48890637 11805,6798.107,92.97,421.037,418.908,0.0
51128.0,STARLINK-3400,PAYLOAD,2022-03-26 22:00:00,15.48877936,0.0001636,53.2146,305.2817,41.7778,154.2283,-0.0011654,-0.00063767,0.0,0 STARLINK-3400,1 51128U 22005AA  22085.91667824 -.00063767  00000-0 -11654-2 0  9996,2 51128  53.2146 305.2817 0001636  41.7778 154.2283 15.48877936  3697,6798.144,92.971,421.121,418.897,0.0
51128.0,STARLINK-3400,PAYLOAD,2022-03-27 14:00:01,15.48855667,0.0001612,53.2148,302.0985,47.6198,267.7134,0.0021772,0.0012058,0.0,0 STARLINK-3400,1 51128U 22005AA  22086.58334491  .00120580  00000-0  21772-2 0  9998,2 51128  53.2148 302.0985 0001612  47.6198 267.7134 15.48855667 11922,6798.209,92.972,421.17,418.979,0.0
